start=new Date('2021-12-31T00:00:00.000Z').valueOf();
sats=[{"MEAN_ELEMENT_THEORY":"SGP4","ECCENTRICITY":"0.00017340","EPHEMERIS_TYPE":"0","SEMIMAJOR_AXIS":"6925.347","INCLINATION":"53.0555","CLASSIFICATION_TYPE":"U","OBJECT_ID":"2020-001AN","OBJECT_NAME":"STARLINK-1125","ELEMENT_SET_NO":"999","REF_FRAME":"TEME","RA_OF_ASC_NODE":"355.9931","TLE_LINE2":"2 44950  53.0555 355.9931 0001734  69.3183 290.7992 15.06400346109486","OBJECT_TYPE":"PAYLOAD","SITE":"AFETR","MEAN_MOTION":"15.06400346","COUNTRY_CODE":"US","PERIOD":"95.592","CENTER_NAME":"EARTH","TIME_SYSTEM":"UTC","TLE_LINE1":"1 44950U 20001AN  21364.48172114 -.00000392  00000-0 -74021-5 0  9994","DECAY_DATE":null,"MEAN_MOTION_DDOT":"0.0000000000000","GP_ID":"192767940","ARG_OF_PERICENTER":"69.3183","NORAD_CAT_ID":"44950","EPOCH":"2021-12-30T11:33:40.706496","APOAPSIS":"548.413","LAUNCH_DATE":"2020-01-07","FILE":"3255239","MEAN_ANOMALY":"290.7992","RCS_SIZE":"LARGE","REV_AT_EPOCH":"10948","MEAN_MOTION_DOT":"-0.00000392","PERIAPSIS":"546.012","BSTAR":"-0.00000740210000"},{"SITE":"AFETR","TLE_LINE2":"2 44951  53.0043 351.4479 0001928  59.5033 300.6146 15.09027298110812","OBJECT_TYPE":"PAYLOAD","RA_OF_ASC_NODE":"351.4479","ELEMENT_SET_NO":"999","REF_FRAME":"TEME","OBJECT_NAME":"STARLINK-1126","OBJECT_ID":"2020-001AP","CLASSIFICATION_TYPE":"U","INCLINATION":"53.0043","SEMIMAJOR_AXIS":"6917.308","EPHEMERIS_TYPE":"0","ECCENTRICITY":"0.00019280","MEAN_ELEMENT_THEORY":"SGP4","BSTAR":"0.00073745000000","PERIAPSIS":"537.839","MEAN_MOTION_DOT":"0.00011529","REV_AT_EPOCH":"11081","RCS_SIZE":"LARGE","MEAN_ANOMALY":"300.6146","FILE":"3255239","LAUNCH_DATE":"2020-01-07","APOAPSIS":"540.507","EPOCH":"2021-12-30T11:07:11.083008","NORAD_CAT_ID":"44951","ARG_OF_PERICENTER":"59.5033","GP_ID":"192766695","MEAN_MOTION_DDOT":"0.0000000000000","DECAY_DATE":null,"TIME_SYSTEM":"UTC","TLE_LINE1":"1 44951U 20001AP  21364.46332272  .00011529  00000-0  73745-3 0  9998","COUNTRY_CODE":"US","CENTER_NAME":"EARTH","PERIOD":"95.426","MEAN_MOTION":"15.09027298"},{"EPHEMERIS_TYPE":"0","ECCENTRICITY":"0.00016860","MEAN_ELEMENT_THEORY":"SGP4","CLASSIFICATION_TYPE":"U","INCLINATION":"53.0545","SEMIMAJOR_AXIS":"6925.364","RA_OF_ASC_NODE":"356.4375","REF_FRAME":"TEME","ELEMENT_SET_NO":"999","OBJECT_NAME":"STARLINK-1117","OBJECT_ID":"2020-001AQ","SITE":"AFETR","OBJECT_TYPE":"PAYLOAD","TLE_LINE2":"2 44952  53.0545 356.4375 0001686  64.2141 295.9021 15.06394916109473","DECAY_DATE":null,"TIME_SYSTEM":"UTC","TLE_LINE1":"1 44952U 20001AQ  21364.38219897 -.00001078  00000-0 -53469-4 0  9999","COUNTRY_CODE":"US","CENTER_NAME":"EARTH","PERIOD":"95.592","MEAN_MOTION":"15.06394916","EPOCH":"2021-12-30T09:10:21.991008","NORAD_CAT_ID":"44952","ARG_OF_PERICENTER":"64.2141","MEAN_MOTION_DDOT":"0.0000000000000","GP_ID":"192766945","BSTAR":"-0.00005346900000","PERIAPSIS":"546.062","MEAN_MOTION_DOT":"-0.00001078","REV_AT_EPOCH":"10947","RCS_SIZE":"LARGE","MEAN_ANOMALY":"295.9021","FILE":"3255239","LAUNCH_DATE":"2020-01-07","APOAPSIS":"548.397"},{"OBJECT_TYPE":"PAYLOAD","TLE_LINE2":"2 44953  53.0500 354.2865 0001568  68.1818 291.9337 15.06397987110837","SITE":"AFETR","OBJECT_NAME":"STARLINK-1124","OBJECT_ID":"2020-001AR","RA_OF_ASC_NODE":"354.2865","REF_FRAME":"TEME","ELEMENT_SET_NO":"999","CLASSIFICATION_TYPE":"U","SEMIMAJOR_AXIS":"6925.355","INCLINATION":"53.0500","EPHEMERIS_TYPE":"0","MEAN_ELEMENT_THEORY":"SGP4","ECCENTRICITY":"0.00015680","FILE":"3255240","MEAN_ANOMALY":"291.9337","APOAPSIS":"548.306","LAUNCH_DATE":"2020-01-07","PERIAPSIS":"546.134","MEAN_MOTION_DOT":"-0.00000227","BSTAR":"0.00000367080000","RCS_SIZE":"LARGE","REV_AT_EPOCH":"11083","NORAD_CAT_ID":"44953","EPOCH":"2021-12-30T20:44:19.383936","MEAN_MOTION_DDOT":"0.0000000000000","GP_ID":"192792145","ARG_OF_PERICENTER":"68.1818","MEAN_MOTION":"15.06397987","COUNTRY_CODE":"US","CENTER_NAME":"EARTH","PERIOD":"95.592","DECAY_DATE":null,"TLE_LINE1":"1 44953U 20001AR  21364.86411324 -.00000227  00000-0  36708-5 0  9994","TIME_SYSTEM":"UTC"},{"OBJECT_TYPE":"PAYLOAD","TLE_LINE2":"2 44954  53.0535 336.2936 0001551  56.0180 304.0956 15.06397912109700","SITE":"AFETR","RA_OF_ASC_NODE":"336.2936","REF_FRAME":"TEME","ELEMENT_SET_NO":"999","OBJECT_NAME":"STARLINK-1066","OBJECT_ID":"2020-001AS","CLASSIFICATION_TYPE":"U","SEMIMAJOR_AXIS":"6925.355","INCLINATION":"53.0535","EPHEMERIS_TYPE":"0","MEAN_ELEMENT_THEORY":"SGP4","ECCENTRICITY":"0.00015510","MEAN_MOTION_DOT":"0.00000710","PERIAPSIS":"546.146","BSTAR":"0.00006658000000","RCS_SIZE":"LARGE","REV_AT_EPOCH":"10970","FILE":"3255239","MEAN_ANOMALY":"304.0956","APOAPSIS":"548.294","LAUNCH_DATE":"2020-01-07","NORAD_CAT_ID":"44954","EPOCH":"2021-12-30T09:55:28.773408","MEAN_MOTION_DDOT":"0.0000000000000","GP_ID":"192768440","ARG_OF_PERICENTER":"56.0180","DECAY_DATE":null,"TLE_LINE1":"1 44954U 20001AS  21364.41352747  .00000710  00000-0  66580-4 0  9995","TIME_SYSTEM":"UTC","MEAN_MOTION":"15.06397912","CENTER_NAME":"EARTH","COUNTRY_CODE":"US","PERIOD":"95.592"},{"MEAN_ELEMENT_THEORY":"SGP4","ECCENTRICITY":"0.00014980","EPHEMERIS_TYPE":"0","SEMIMAJOR_AXIS":"6925.348","INCLINATION":"53.0552","CLASSIFICATION_TYPE":"U","OBJECT_ID":"2020-001AT","OBJECT_NAME":"STARLINK-1069","REF_FRAME":"TEME","ELEMENT_SET_NO":"999","RA_OF_ASC_NODE":"336.2754","TLE_LINE2":"2 44955  53.0552 336.2754 0001498  58.3803 301.7332 15.06400260109708","OBJECT_TYPE":"PAYLOAD","SITE":"AFETR","MEAN_MOTION":"15.06400260","CENTER_NAME":"EARTH","COUNTRY_CODE":"US","PERIOD":"95.592","TIME_SYSTEM":"UTC","TLE_LINE1":"1 44955U 20001AT  21364.42090067 -.00000396  00000-0 -77092-5 0  9994","DECAY_DATE":null,"MEAN_MOTION_DDOT":"0.0000000000000","GP_ID":"192767195","ARG_OF_PERICENTER":"58.3803","NORAD_CAT_ID":"44955","EPOCH":"2021-12-30T10:06:05.817888","APOAPSIS":"548.250","LAUNCH_DATE":"2020-01-07","FILE":"3255239","MEAN_ANOMALY":"301.7332","RCS_SIZE":"LARGE","REV_AT_EPOCH":"10970","MEAN_MOTION_DOT":"-0.00000396","PERIAPSIS":"546.175","BSTAR":"-0.00000770920000"},{"ECCENTRICITY":"0.00019090","MEAN_ELEMENT_THEORY":"SGP4","EPHEMERIS_TYPE":"0","INCLINATION":"53.0549","SEMIMAJOR_AXIS":"6925.376","CLASSIFICATION_TYPE":"U","OBJECT_ID":"2020-001AU","OBJECT_NAME":"STARLINK-1070","ELEMENT_SET_NO":"999","REF_FRAME":"TEME","RA_OF_ASC_NODE":"336.2871","SITE":"AFETR","TLE_LINE2":"2 44956  53.0549 336.2871 0001909  58.0265 302.0910 15.06391080109762","OBJECT_TYPE":"PAYLOAD","PERIOD":"95.593","COUNTRY_CODE":"US","CENTER_NAME":"EARTH","MEAN_MOTION":"15.06391080","TIME_SYSTEM":"UTC","TLE_LINE1":"1 44956U 20001AU  21364.41721845 -.00000318  00000-0 -24512-5 0  9992","DECAY_DATE":null,"ARG_OF_PERICENTER":"58.0265","GP_ID":"192767445","MEAN_MOTION_DDOT":"0.0000000000000","EPOCH":"2021-12-30T10:00:47.674080","NORAD_CAT_ID":"44956","LAUNCH_DATE":"2020-01-07","APOAPSIS":"548.563","MEAN_ANOMALY":"302.0910","FILE":"3255239","REV_AT_EPOCH":"10976","RCS_SIZE":"LARGE","BSTAR":"-0.00000245120000","MEAN_MOTION_DOT":"-0.00000318","PERIAPSIS":"545.919"},{"RCS_SIZE":"LARGE","REV_AT_EPOCH":"10983","PERIAPSIS":"546.036","MEAN_MOTION_DOT":"-0.00000762","BSTAR":"-0.00003225100000","APOAPSIS":"548.463","LAUNCH_DATE":"2020-01-07","FILE":"3255240","MEAN_ANOMALY":"298.1536","GP_ID":"192791646","MEAN_MOTION_DDOT":"0.0000000000000","ARG_OF_PERICENTER":"61.9630","NORAD_CAT_ID":"44957","EPOCH":"2021-12-30T21:46:44.111136","TIME_SYSTEM":"UTC","TLE_LINE1":"1 44957U 20001AV  21364.90745499 -.00000762  00000-0 -32251-4 0  9999","DECAY_DATE":null,"MEAN_MOTION":"15.06388367","CENTER_NAME":"EARTH","COUNTRY_CODE":"US","PERIOD":"95.593","TLE_LINE2":"2 44957  53.0557 334.0876 0001752  61.9630 298.1536 15.06388367109839","OBJECT_TYPE":"PAYLOAD","SITE":"AFETR","REF_FRAME":"TEME","ELEMENT_SET_NO":"999","RA_OF_ASC_NODE":"334.0876","OBJECT_ID":"2020-001AV","OBJECT_NAME":"STARLINK-1074","SEMIMAJOR_AXIS":"6925.384","INCLINATION":"53.0557","CLASSIFICATION_TYPE":"U","MEAN_ELEMENT_THEORY":"SGP4","ECCENTRICITY":"0.00017520","EPHEMERIS_TYPE":"0"},{"CLASSIFICATION_TYPE":"U","SEMIMAJOR_AXIS":"6925.357","INCLINATION":"53.0533","EPHEMERIS_TYPE":"0","MEAN_ELEMENT_THEORY":"SGP4","ECCENTRICITY":"0.00017140","TLE_LINE2":"2 44959  53.0533 336.4053 0001714  55.0254 305.0896 15.06397277109750","OBJECT_TYPE":"PAYLOAD","SITE":"AFETR","OBJECT_NAME":"STARLINK-1076","OBJECT_ID":"2020-001AX","RA_OF_ASC_NODE":"336.4053","REF_FRAME":"TEME","ELEMENT_SET_NO":"999","NORAD_CAT_ID":"44959","EPOCH":"2021-12-30T09:23:38.184288","MEAN_MOTION_DDOT":"0.0000000000000","GP_ID":"192767941","ARG_OF_PERICENTER":"55.0254","MEAN_MOTION":"15.06397277","COUNTRY_CODE":"US","PERIOD":"95.592","CENTER_NAME":"EARTH","DECAY_DATE":null,"TLE_LINE1":"1 44959U 20001AX  21364.39141417 -.00000365  00000-0 -56278-5 0  9999","TIME_SYSTEM":"UTC","FILE":"3255239","MEAN_ANOMALY":"305.0896","APOAPSIS":"548.409","LAUNCH_DATE":"2020-01-07","MEAN_MOTION_DOT":"-0.00000365","PERIAPSIS":"546.035","BSTAR":"-0.00000562780000","RCS_SIZE":"LARGE","REV_AT_EPOCH":"10975"},{"OBJECT_NAME":"STARLINK-1080","OBJECT_ID":"2020-001AZ","RA_OF_ASC_NODE":"336.3662","ELEMENT_SET_NO":"999","REF_FRAME":"TEME","TLE_LINE2":"2 44961  53.0553 336.3662 0001793  53.9372 306.1782 15.06397709109762","OBJECT_TYPE":"PAYLOAD","SITE":"AFETR","EPHEMERIS_TYPE":"0","MEAN_ELEMENT_THEORY":"SGP4","ECCENTRICITY":"0.00017930","CLASSIFICATION_TYPE":"U","SEMIMAJOR_AXIS":"6925.356","INCLINATION":"53.0553","FILE":"3255239","MEAN_ANOMALY":"306.1782","APOAPSIS":"548.462","LAUNCH_DATE":"2020-01-07","PERIAPSIS":"545.979","MEAN_MOTION_DOT":"0.00000054","BSTAR":"0.00002250200000","RCS_SIZE":"LARGE","REV_AT_EPOCH":"10976","MEAN_MOTION":"15.06397709","COUNTRY_CODE":"US","PERIOD":"95.592","CENTER_NAME":"EARTH","DECAY_DATE":null,"TLE_LINE1":"1 44961U 20001AZ  21364.39878493  .00000054  00000-0  22502-4 0  9998","TIME_SYSTEM":"UTC","NORAD_CAT_ID":"44961","EPOCH":"2021-12-30T09:34:15.017952","MEAN_MOTION_DDOT":"0.0000000000000","GP_ID":"192766696","ARG_OF_PERICENTER":"53.9372"}];
